OBJECT_NAME,OBJECT_ID,EPOCH,MEAN_MOTION,ECCENTRICITY,INCLINATION,RA_OF_ASC_NODE,ARG_OF_PERICENTER,MEAN_ANOMALY,EPHEMERIS_TYPE,CLASSIFICATION_TYPE,NORAD_CAT_ID,ELEMENT_SET_NO,REV_AT_EPOCH,BSTAR,MEAN_MOTION_DOT,MEAN_MOTION_DDOT
SCD 1,1993-009B,2026-07-12T23:46:28.062048,14.46128066,.0042018,24.9704,48.2532,51.2320,94.1420,0,U,22490,999,76485,.28089E-4,.288E-5,0
TECHSAT 1B (GO-32),1998-043D,2026-07-12T21:55:49.711584,14.24433105,.0002131,99.0083,187.3229,118.0072,242.1321,0,U,25397,999,45499,.29958E-4,.23E-6,0
SCD 2,1998-060A,2026-07-12T15:47:57.270336,14.45534341,.0016922,24.9951,275.0827,33.0131,119.0684,0,U,25504,999,46401,.27648E-4,.281E-5,0
DLR-TUBSAT,1999-029B,2026-07-12T22:05:35.837088,14.52433002,.0012962,98.6709,190.2728,272.2732,87.6978,0,U,25757,999,43698,.16059E-4,.17E-6,0
TERRA,1999-068A,2026-07-13T04:24:33.020064,14.61122780,.0003328,97.9443,242.6974,126.8576,326.3419,0,U,25994,999,41340,.50268E-4,.203E-5,0
MAROC-TUBSAT,2001-056D,2026-07-13T00:21:41.068224,13.70263512,.0020617,99.8096,11.3630,77.4796,77.9630,0,U,27004,999,22972,.22319E-4,-.27E-6,0
AQUA,2002-022A,2026-07-13T04:39:21.054816,14.62195357,.0000879,98.4294,163.9995,109.5064,306.2066,0,U,27424,999,28707,.8473E-4,.377E-5,0
SHIYAN-1 (SY-1),2004-012A,2026-07-13T05:01:03.026784,15.34420203,.000407,97.8692,273.9793,284.5782,75.5008,0,U,28220,999,21508,.25047E-3,.8263E-4,0
AURA,2004-026A,2026-07-13T03:24:13.647168,14.61366087,.0001288,98.3430,150.8125,92.3331,267.8017,0,U,28376,999,17000,.84177E-4,.368E-5,0
IRS-P5 (CARTOSAT-1),2005-017A,2026-07-12T15:30:21.381120,14.91113249,.0001526,97.5306,215.5555,56.0467,304.0897,0,U,28649,999,14761,.62269E-4,.565E-5,0
SINAH 1,2005-043D,2026-07-13T03:49:51.347712,14.64174734,.0014248,98.2890,328.6390,189.9199,170.1724,0,U,28893,999,10432,.36113E-4,.141E-5,0
RESURS-DK 1,2006-021A,2026-07-13T05:04:21.529920,15.13315244,.0006977,69.9309,272.1824,273.2712,86.7656,0,U,29228,999,10651,.62348E-4,.1004E-4,0
ARIRANG-2 (KOMPSAT-2),2006-031A,2026-07-13T04:42:22.511232,14.64674788,.0014454,97.8311,17.3854,357.2581,124.4301,0,U,29268,999,6528,.24343E-4,.85E-6,0
LAPAN-TUBSAT,2007-001A,2026-07-13T04:18:08.942688,14.85977139,.0013631,98.1350,193.9903,99.3924,260.8833,0,U,29709,999,5501,.5348E-4,.41E-5,0
HAIYANG-1B,2007-010A,2026-07-12T22:41:14.406432,14.31032985,.0014583,98.3513,174.7935,122.0038,238.2565,0,U,31113,999,432,.28228E-4,.33E-6,0
COSMO-SKYMED 1,2007-023A,2026-07-13T04:48:35.995104,14.97213619,.0001255,97.8844,26.2763,103.1254,257.0107,0,U,31598,999,3368,.11927E-3,.132E-4,0
TERRASAR-X,2007-026A,2026-07-07T11:29:59.023968,15.19153986,.0001878,97.4461,195.8972,86.9540,273.1909,0,U,31698,999,5630,.14624E-4,.24E-5,0
WORLDVIEW-1 (WV-1),2007-041A,2026-07-13T03:42:49.811616,15.24544883,.0001339,97.3900,313.5331,215.7937,144.3211,0,U,32060,999,4683,.14733E-3,.3555E-4,0
YAOGAN-3,2007-055A,2026-07-13T05:40:15.151872,14.90877346,.0001608,97.8149,223.8565,82.1780,277.9620,0,U,32289,999,975,.16242E-3,.1545E-4,0
COSMO-SKYMED 2,2007-059A,2026-07-13T03:39:43.978176,14.82149632,.0001428,97.8891,17.3747,93.8724,266.2653,0,U,32376,999,585,.32474E-4,.206E-5,0
RADARSAT-2,2007-061A,2026-07-13T04:57:57.761856,14.29983130,.0001327,98.5782,200.7677,83.7298,276.4035,0,U,32382,999,96967,.48766E-4,.82E-6,0
CARTOSAT-2A,2008-021A,2026-07-13T03:45:32.126976,14.79274723,.0012614,97.7626,241.9769,33.3750,326.8255,0,U,32783,999,98264,.57397E-4,.377E-5,0
HUANJING 1A (HJ-1A),2008-041A,2026-07-13T04:37:39.309312,14.84048147,.0020489,97.6691,179.0277,55.7691,304.5462,0,U,33320,999,96226,.15015E-3,.1204E-4,0
HUANJING 1B (HJ-1B),2008-041B,2026-07-13T05:47:27.106944,14.83361417,.00379,97.6528,182.1667,97.3125,263.2399,0,U,33321,999,96227,.31908E-4,.213E-5,0
GEOEYE 1,2008-042A,2026-07-13T04:19:20.438688,14.64648428,.0004083,98.1328,267.7996,353.5709,6.5441,0,U,33331,999,95395,.45712E-4,.195E-5,0
THEOS,2008-049A,2026-07-13T04:16:52.768128,14.20135466,.0001129,98.5566,250.6163,88.4135,271.7171,0,U,33396,999,92165,-.14915E-3,-.36E-5,0
COSMO-SKYMED 3,2008-054A,2026-07-13T04:06:03.116160,15.07103354,.0015675,97.8253,53.1721,173.0999,187.0447,0,U,33412,999,96085,.10206E-3,.147E-4,0
YAOGAN-4,2008-061A,2026-07-12T19:15:40.623264,14.83248757,.0014044,97.9304,127.1245,353.5413,6.5617,0,U,33446,999,94946,.69844E-4,.518E-5,0
GOSAT (IBUKI),2009-002A,2026-07-12T21:52:09.727680,14.67538411,.0001087,98.0912,304.6726,91.5498,268.5831,0,U,33492,999,93523,.7795E-4,.394E-5,0
DEIMOS-1,2009-041A,2026-07-13T03:55:59.384928,14.75262332,.0002758,97.7426,350.2695,95.2510,264.9014,0,U,35681,999,91071,.20848E-4,.93E-6,0
DUBAISAT-1,2009-041B,2026-07-12T22:23:00.960000,14.75164754,.0010085,98.0080,326.9130,356.0422,4.0705,0,U,35682,999,90889,.70006E-4,.422E-5,0
