SCD 1                   
1 22490U 93009B   26193.99060257  .00000288  00000+0  28089-4 0  9995
2 22490  24.9704  48.2532 0042018  51.2320  94.1420 14.46128066764855
TECHSAT 1B (GO-32)      
1 25397U 98043D   26193.91376981  .00000023  00000+0  29958-4 0  9996
2 25397  99.0083 187.3229 0002131 118.0072 242.1321 14.24433105454998
SCD 2                   
1 25504U 98060A   26193.65830174  .00000281  00000+0  27648-4 0  9995
2 25504  24.9951 275.0827 0016922  33.0131 119.0684 14.45534341464018
DLR-TUBSAT              
1 25757U 99029B   26193.92055367  .00000017  00000+0  16059-4 0  9995
2 25757  98.6709 190.2728 0012962 272.2732  87.6978 14.52433002436980
TERRA                   
1 25994U 99068A   26194.18371551  .00000203  00000+0  50268-4 0  9993
2 25994  97.9443 242.6974 0003328 126.8576 326.3419 14.61122780413404
MAROC-TUBSAT            
1 27004U 01056D   26194.01505866 -.00000027  00000+0  22319-4 0  9998
2 27004  99.8096  11.3630 0020617  77.4796  77.9630 13.70263512229720
AQUA                    
1 27424U 02022A   26194.19399369  .00000377  00000+0  84730-4 0  9998
2 27424  98.4294 163.9995 0000879 109.5064 306.2066 14.62195357287078
SHIYAN-1 (SY-1)         
1 28220U 04012A   26194.20906281  .00008263  00000+0  25047-3 0  9990
2 28220  97.8692 273.9793 0004070 284.5782  75.5008 15.34420203215089
AURA                    
1 28376U 04026A   26194.14182462  .00000368  00000+0  84177-4 0  9995
2 28376  98.3430 150.8125 0001288  92.3331 267.8017 14.61366087170008
IRS-P5 (CARTOSAT-1)     
1 28649U 05017A   26193.64608080  .00000565  00000+0  62269-4 0  9999
2 28649  97.5306 215.5555 0001526  56.0467 304.0897 14.91113249147616
SINAH 1                 
1 28893U 05043D   26194.15962208  .00000141  00000+0  36113-4 0  9990
2 28893  98.2890 328.6390 0014248 189.9199 170.1724 14.64174734104327
RESURS-DK 1             
1 29228U 06021A   26194.21136030  .00001004  00000+0  62348-4 0  9991
2 29228  69.9309 272.1824 0006977 273.2712  86.7656 15.13315244106510
ARIRANG-2 (KOMPSAT-2)   
1 29268U 06031A   26194.19609388  .00000085  00000+0  24343-4 0  9995
2 29268  97.8311  17.3854 0014454 357.2581 124.4301 14.64674788 65286
LAPAN-TUBSAT            
1 29709U 07001A   26194.17927017  .00000410  00000+0  53480-4 0  9999
2 29709  98.1350 193.9903 0013631  99.3924 260.8833 14.85977139 55014
HAIYANG-1B              
1 31113U 07010A   26193.94530563  .00000033  00000+0  28228-4 0  9994
2 31113  98.3513 174.7935 0014583 122.0038 238.2565 14.31032985  4329
COSMO-SKYMED 1          
1 31598U 07023A   26194.20041661  .00001320  00000+0  11927-3 0  9998
2 31598  97.8844  26.2763 0001255 103.1254 257.0107 14.97213619 33688
TERRASAR-X              
1 31698U 07026A   26188.47915537  .00000240  00000+0  14624-4 0  9994
2 31698  97.4461 195.8972 0001878  86.9540 273.1909 15.19153986 56300
WORLDVIEW-1 (WV-1)      
1 32060U 07041A   26194.15474319  .00003555  00000+0  14733-3 0  9997
2 32060  97.3900 313.5331 0001339 215.7937 144.3211 15.24544883 46831
YAOGAN-3                
1 32289U 07055A   26194.23628648  .00001545  00000+0  16242-3 0  9994
2 32289  97.8149 223.8565 0001608  82.1780 277.9620 14.90877346  9759
COSMO-SKYMED 2          
1 32376U 07059A   26194.15259234  .00000206  00000+0  32474-4 0  9996
2 32376  97.8891  17.3747 0001428  93.8724 266.2653 14.82149632  5850
RADARSAT-2              
1 32382U 07061A   26194.20691854  .00000082  00000+0  48766-4 0  9993
2 32382  98.5782 200.7677 0001327  83.7298 276.4035 14.29983130969672
CARTOSAT-2A             
1 32783U 08021A   26194.15662184  .00000377  00000+0  57397-4 0  9990
2 32783  97.7626 241.9769 0012614  33.3750 326.8255 14.79274723982641
HUANJING 1A (HJ-1A)     
1 33320U 08041A   26194.19281608  .00001204  00000+0  15015-3 0  9992
2 33320  97.6691 179.0277 0020489  55.7691 304.5462 14.84048147962260
HUANJING 1B (HJ-1B)     
1 33321U 08041B   26194.24128596  .00000213  00000+0  31908-4 0  9994
2 33321  97.6528 182.1667 0037900  97.3125 263.2399 14.83361417962276
GEOEYE 1                
1 33331U 08042A   26194.18009767  .00000195  00000+0  45712-4 0  9994
2 33331  98.1328 267.7996 0004083 353.5709   6.5441 14.64648428953957
THEOS                   
1 33396U 08049A   26194.17838852 -.00000360  00000+0 -14915-3 0  9992
2 33396  98.5566 250.6163 0001129  88.4135 271.7171 14.20135466921651
COSMO-SKYMED 3          
1 33412U 08054A   26194.17086940  .00001470  00000+0  10206-3 0  9990
2 33412  97.8253  53.1721 0015675 173.0999 187.0447 15.07103354960858
YAOGAN-4                
1 33446U 08061A   26193.80255351  .00000518  00000+0  69844-4 0  9993
2 33446  97.9304 127.1245 0014044 353.5413   6.5617 14.83248757949469
GOSAT (IBUKI)           
1 33492U 09002A   26193.91122370  .00000394  00000+0  77950-4 0  9995
2 33492  98.0912 304.6726 0001087  91.5498 268.5831 14.67538411935237
DEIMOS-1                
1 35681U 09041A   26194.16388177  .00000093  00000+0  20848-4 0  9997
2 35681  97.7426 350.2695 0002758  95.2510 264.9014 14.75262332910713
DUBAISAT-1              
1 35682U 09041B   26193.93265000  .00000422  00000+0  70006-4 0  9998
2 35682  98.0080 326.9130 0010085 356.0422   4.0705 14.75164754908895
